[{"OBJECT_NAME":"ONEWEB-0208","OBJECT_ID":"2021-031AK","EPOCH":"2026-04-18T06:07:34.886496","MEAN_MOTION":13.1450237,"ECCENTRICITY":0.0001692,"INCLINATION":87.8933,"RA_OF_ASC_NODE":301.6669,"ARG_OF_PERICENTER":79.7134,"MEAN_ANOMALY":280.4187,"EPHEMERIS_TYPE":0,"CLASSIFICATION_TYPE":"U","NORAD_CAT_ID":48243,"ELEMENT_SET_NO":999,"REV_AT_EPOCH":24043,"BSTAR":-0.00051598,"MEAN_MOTION_DOT":-1.78e-06,"MEAN_MOTION_DDOT":0.0},{"OBJECT_NAME":"ONEWEB-0200","OBJECT_ID":"2021-031AL","EPOCH":"2026-04-18T01:35:50.181792","MEAN_MOTION":13.14502371,"ECCENTRICITY":0.0001619,"INCLINATION":87.8925,"RA_OF_ASC_NODE":301.6924,"ARG_OF_PERICENTER":86.4547,"MEAN_ANOMALY":273.6768,"EPHEMERIS_TYPE":0,"CLASSIFICATION_TYPE":"U","NORAD_CAT_ID":48244,"ELEMENT_SET_NO":999,"REV_AT_EPOCH":24033,"BSTAR":0.00067043,"MEAN_MOTION_DOT":2.61e-06,"MEAN_MOTION_DDOT":0.0},{"OBJECT_NAME":"ONEWEB-0217","OBJECT_ID":"2021-031AM","EPOCH":"2026-04-18T00:09:03.720384","MEAN_MOTION":13.14502148,"ECCENTRICITY":0.0001636,"INCLINATION":87.8932,"RA_OF_ASC_NODE":301.7053,"ARG_OF_PERICENTER":76.7246,"MEAN_ANOMALY":283.4066,"EPHEMERIS_TYPE":0,"CLASSIFICATION_TYPE":"U","NORAD_CAT_ID":48245,"ELEMENT_SET_NO":999,"REV_AT_EPOCH":24027,"BSTAR":-9.9821e-05,"MEAN_MOTION_DOT":-2.4e-07,"MEAN_MOTION_DDOT":0.0},{"OBJECT_NAME":"ONEWEB-0211","OBJECT_ID":"2021-045A","EPOCH":"2026-04-18T05:04:04.414944","MEAN_MOTION":13.16193505,"ECCENTRICITY":0.0001945,"INCLINATION":87.8942,"RA_OF_ASC_NODE":271.0585,"ARG_OF_PERICENTER":74.9266,"MEAN_ANOMALY":285.208,"EPHEMERIS_TYPE":0,"CLASSIFICATION_TYPE":"U","NORAD_CAT_ID":48767,"ELEMENT_SET_NO":999,"REV_AT_EPOCH":23655,"BSTAR":0.00018401000000000002,"MEAN_MOTION_DOT":8.3e-07,"MEAN_MOTION_DDOT":0.0},{"OBJECT_NAME":"ONEWEB-0223","OBJECT_ID":"2021-045B","EPOCH":"2026-04-17T21:06:55.502784","MEAN_MOTION":13.15547064,"ECCENTRICITY":0.000209,"INCLINATION":87.8945,"RA_OF_ASC_NODE":271.217,"ARG_OF_PERICENTER":85.8739,"MEAN_ANOMALY":274.2631,"EPHEMERIS_TYPE":0,"CLASSIFICATION_TYPE":"U","NORAD_CAT_ID":48768,"ELEMENT_SET_NO":999,"REV_AT_EPOCH":23647,"BSTAR":-0.00010891000000000001,"MEAN_MOTION_DOT":-2.8e-07,"MEAN_MOTION_DDOT":0.0},{"OBJECT_NAME":"ONEWEB-0230","OBJECT_ID":"2021-045C","EPOCH":"2026-04-18T03:43:56.759520","MEAN_MOTION":13.15547746,"ECCENTRICITY":0.0001796,"INCLINATION":87.8939,"RA_OF_ASC_NODE":271.1811,"ARG_OF_PERICENTER":99.9221,"MEAN_ANOMALY":260.2112,"EPHEMERIS_TYPE":0,"CLASSIFICATION_TYPE":"U","NORAD_CAT_ID":48769,"ELEMENT_SET_NO":999,"REV_AT_EPOCH":23677,"BSTAR":-0.00015113,"MEAN_MOTION_DOT":-4.4e-07,"MEAN_MOTION_DDOT":0.0},{"OBJECT_NAME":"ONEWEB-0237","OBJECT_ID":"2021-045D","EPOCH":"2026-04-18T03:27:58.456512","MEAN_MOTION":13.15547892,"ECCENTRICITY":0.000204,"INCLINATION":87.8941,"RA_OF_ASC_NODE":271.1851,"ARG_OF_PERICENTER":91.9883,"MEAN_ANOMALY":268.1481,"EPHEMERIS_TYPE":0,"CLASSIFICATION_TYPE":"U","NORAD_CAT_ID":48770,"ELEMENT_SET_NO":999,"REV_AT_EPOCH":23649,"BSTAR":0.00018204,"MEAN_MOTION_DOT":8.1e-07,"MEAN_MOTION_DDOT":0.0},{"OBJECT_NAME":"ONEWEB-0235","OBJECT_ID":"2021-045E","EPOCH":"2026-04-18T04:40:58.513152","MEAN_MOTION":13.15547874,"ECCENTRICITY":0.0002119,"INCLINATION":87.8946,"RA_OF_ASC_NODE":271.1548,"ARG_OF_PERICENTER":87.2417,"MEAN_ANOMALY":272.8956,"EPHEMERIS_TYPE":0,"CLASSIFICATION_TYPE":"U","NORAD_CAT_ID":48771,"ELEMENT_SET_NO":999,"REV_AT_EPOCH":23649,"BSTAR":2.0693000000000002e-06,"MEAN_MOTION_DOT":1.4e-07,"MEAN_MOTION_DDOT":0.0},{"OBJECT_NAME":"ONEWEB-0242","OBJECT_ID":"2021-045F","EPOCH":"2026-04-18T06:21:21.820032","MEAN_MOTION":13.15548133,"ECCENTRICITY":0.0001975,"INCLINATION":87.8947,"RA_OF_ASC_NODE":271.1369,"ARG_OF_PERICENTER":95.9602,"MEAN_ANOMALY":264.1753,"EPHEMERIS_TYPE":0,"CLASSIFICATION_TYPE":"U","NORAD_CAT_ID":48772,"ELEMENT_SET_NO":999,"REV_AT_EPOCH":23654,"BSTAR":-2.9197e-06,"MEAN_MOTION_DOT":1.2e-07,"MEAN_MOTION_DDOT":0.0},{"OBJECT_NAME":"ONEWEB-0241","OBJECT_ID":"2021-045G","EPOCH":"2026-04-18T04:13:36.224544","MEAN_MOTION":13.15547914,"ECCENTRICITY":0.0001912,"INCLINATION":87.8933,"RA_OF_ASC_NODE":271.1796,"ARG_OF_PERICENTER":83.5373,"MEAN_ANOMALY":276.5975,"EPHEMERIS_TYPE":0,"CLASSIFICATION_TYPE":"U","NORAD_CAT_ID":48773,"ELEMENT_SET_NO":999,"REV_AT_EPOCH":23644,"BSTAR":-0.00030335000000000003,"MEAN_MOTION_DOT":-1.01e-06,"MEAN_MOTION_DDOT":0.0},{"OBJECT_NAME":"ONEWEB-0243","OBJECT_ID":"2021-045H","EPOCH":"2026-04-18T04:59:14.957664","MEAN_MOTION":13.15548808,"ECCENTRICITY":0.0002317,"INCLINATION":87.8938,"RA_OF_ASC_NODE":271.1851,"ARG_OF_PERICENTER":96.2256,"MEAN_ANOMALY":263.9139,"EPHEMERIS_TYPE":0,"CLASSIFICATION_TYPE":"U","NORAD_CAT_ID":48774,"ELEMENT_SET_NO":999,"REV_AT_EPOCH":23647,"BSTAR":0.0005813700000000001,"MEAN_MOTION_DOT":2.32e-06,"MEAN_MOTION_DDOT":0.0},{"OBJECT_NAME":"ONEWEB-0222","OBJECT_ID":"2021-045J","EPOCH":"2026-04-18T04:35:16.141920","MEAN_MOTION":13.15547129,"ECCENTRICITY":0.000188,"INCLINATION":87.8945,"RA_OF_ASC_NODE":271.1514,"ARG_OF_PERICENTER":91.1864,"MEAN_ANOMALY":268.9482,"EPHEMERIS_TYPE":0,"CLASSIFICATION_TYPE":"U","NORAD_CAT_ID":48775,"ELEMENT_SET_NO":999,"REV_AT_EPOCH":23651,"BSTAR":2.6472000000000003e-06,"MEAN_MOTION_DOT":1.4e-07,"MEAN_MOTION_DDOT":0.0},{"OBJECT_NAME":"ONEWEB-0244","OBJECT_ID":"2021-045K","EPOCH":"2026-04-18T03:23:24.406944","MEAN_MOTION":13.15548407,"ECCENTRICITY":0.0001906,"INCLINATION":87.8954,"RA_OF_ASC_NODE":271.1523,"ARG_OF_PERICENTER":93.4086,"MEAN_ANOMALY":266.7263,"EPHEMERIS_TYPE":0,"CLASSIFICATION_TYPE":"U","NORAD_CAT_ID":48776,"ELEMENT_SET_NO":999,"REV_AT_EPOCH":23707,"BSTAR":0.00033067999999999997,"MEAN_MOTION_DOT":1.37e-06,"MEAN_MOTION_DDOT":0.0},{"OBJECT_NAME":"ONEWEB-0247","OBJECT_ID":"2021-045L","EPOCH":"2026-04-18T05:08:22.452864","MEAN_MOTION":13.15548033,"ECCENTRICITY":0.0002612,"INCLINATION":87.8939,"RA_OF_ASC_NODE":271.1785,"ARG_OF_PERICENTER":89.1474,"MEAN_ANOMALY":270.9956,"EPHEMERIS_TYPE":0,"CLASSIFICATION_TYPE":"U","NORAD_CAT_ID":48777,"ELEMENT_SET_NO":999,"REV_AT_EPOCH":23652,"BSTAR":0.00025978000000000004,"MEAN_MOTION_DOT":1.11e-06,"MEAN_MOTION_DDOT":0.0},{"OBJECT_NAME":"ONEWEB-0245","OBJECT_ID":"2021-045M","EPOCH":"2026-04-18T05:01:30.884736","MEAN_MOTION":13.15548187,"ECCENTRICITY":0.0001737,"INCLINATION":87.8948,"RA_OF_ASC_NODE":271.153,"ARG_OF_PERICENTER":88.4744,"MEAN_ANOMALY":271.6586,"EPHEMERIS_TYPE":0,"CLASSIFICATION_TYPE":"U","NORAD_CAT_ID":48778,"ELEMENT_SET_NO":999,"REV_AT_EPOCH":23649,"BSTAR":0.0006226199999999999,"MEAN_MOTION_DOT":2.47e-06,"MEAN_MOTION_DDOT":0.0},{"OBJECT_NAME":"ONEWEB-0229","OBJECT_ID":"2021-045N","EPOCH":"2026-04-18T04:54:40.117536","MEAN_MOTION":13.15548381,"ECCENTRICITY":0.0001944,"INCLINATION":87.8946,"RA_OF_ASC_NODE":271.1523,"ARG_OF_PERICENTER":96.5618,"MEAN_ANOMALY":263.5734,"EPHEMERIS_TYPE":0,"CLASSIFICATION_TYPE":"U","NORAD_CAT_ID":48779,"ELEMENT_SET_NO":999,"REV_AT_EPOCH":23652,"BSTAR":0.00052351,"MEAN_MOTION_DOT":2.1e-06,"MEAN_MOTION_DDOT":0.0}]