ONEWEB-0208             
1 48243U 21031AK  26108.25526489 -.00000178  00000+0 -51598-3 0  9994
2 48243  87.8933 301.6669 0001692  79.7134 280.4187 13.14502370240430
ONEWEB-0200             
1 48244U 21031AL  26108.06655303  .00000261  00000+0  67043-3 0  9995
2 48244  87.8925 301.6924 0001619  86.4547 273.6768 13.14502371240337
ONEWEB-0217             
1 48245U 21031AM  26108.00629306 -.00000024  00000+0 -99821-4 0  9993
2 48245  87.8932 301.7053 0001636  76.7246 283.4066 13.14502148240272
ONEWEB-0211             
1 48767U 21045A   26108.21116221  .00000083  00000+0  18401-3 0  9994
2 48767  87.8942 271.0585 0001945  74.9266 285.2080 13.16193505236553
ONEWEB-0223             
1 48768U 21045B   26107.87980906 -.00000028  00000+0 -10891-3 0  9991
2 48768  87.8945 271.2170 0002090  85.8739 274.2631 13.15547064236470
ONEWEB-0230             
1 48769U 21045C   26108.15551805 -.00000044  00000+0 -15113-3 0  9996
2 48769  87.8939 271.1811 0001796  99.9221 260.2112 13.15547746236778
ONEWEB-0237             
1 48770U 21045D   26108.14442658  .00000081  00000+0  18204-3 0  9995
2 48770  87.8941 271.1851 0002040  91.9883 268.1481 13.15547892236493
ONEWEB-0235             
1 48771U 21045E   26108.19512168  .00000014  00000+0  20693-5 0  9998
2 48771  87.8946 271.1548 0002119  87.2417 272.8956 13.15547874236499
ONEWEB-0242             
1 48772U 21045F   26108.26483588  .00000012  00000+0 -29197-5 0  9997
2 48772  87.8947 271.1369 0001975  95.9602 264.1753 13.15548133236547
ONEWEB-0241             
1 48773U 21045G   26108.17611371 -.00000101  00000+0 -30335-3 0  9995
2 48773  87.8933 271.1796 0001912  83.5373 276.5975 13.15547914236444
ONEWEB-0243             
1 48774U 21045H   26108.20781201  .00000232  00000+0  58137-3 0  9993
2 48774  87.8938 271.1851 0002317  96.2256 263.9139 13.15548808236471
ONEWEB-0222             
1 48775U 21045J   26108.19115905  .00000014  00000+0  26472-5 0  9991
2 48775  87.8945 271.1514 0001880  91.1864 268.9482 13.15547129236515
ONEWEB-0244             
1 48776U 21045K   26108.14125471  .00000137  00000+0  33068-3 0  9999
2 48776  87.8954 271.1523 0001906  93.4086 266.7263 13.15548407237071
ONEWEB-0247             
1 48777U 21045L   26108.21414876  .00000111  00000+0  25978-3 0  9991
2 48777  87.8939 271.1785 0002612  89.1474 270.9956 13.15548033236523
ONEWEB-0245             
1 48778U 21045M   26108.20938524  .00000247  00000+0  62262-3 0  9999
2 48778  87.8948 271.1530 0001737  88.4744 271.6586 13.15548187236494
ONEWEB-0229             
1 48779U 21045N   26108.20463099  .00000210  00000+0  52351-3 0  9998
2 48779  87.8946 271.1523 0001944  96.5618 263.5734 13.15548381236520
